{"type": "FeatureCollection", "features": [ {"type": "Feature", "properties": {"norad_id": 33799, "name": "COSMOS 2251 DEB", "group": "cosmos-2251-debris", "lat": -73.87753470299087, "lon": 3.348523641553885, "alt_km": 644.806810855529, "timestamp": "2025-12-10T20:49:52.945237+00:00", "meta": {"OBJECT_NAME": "COSMOS 2251 DEB", "OBJECT_ID": "1993-036AQ", "EPOCH": "2025-12-10T10:13:24.685824", "MEAN_MOTION": 14.79522867, "ECCENTRICITY": 0.00236194, "INCLINATION": 74.032, "RA_OF_ASC_NODE": 86.3428, "ARG_OF_PERICENTER": 157.8211, "MEAN_ANOMALY": 280.9118, "EPHEMERIS_TYPE": 0, "CLASSIFICATION_TYPE": "U", "NORAD_CAT_ID": 33799, "ELEMENT_SET_NO": 999, "REV_AT_EPOCH": 88777, "BSTAR": 0.0017797654, "MEAN_MOTION_DOT": 0.00013369, "MEAN_MOTION_DDOT": 0}, "tle": {"line1": "1 33799U 93036AQ  25344.42598016  .00013369  00000+0  17798-2 0  9990", "line2": "2 33799  74.0320  86.3428 0023619 157.8211 280.9118 14.79522867887773"}}, "geometry": {"type": "Point", "coordinates": [3.348523641553885, -73.87753470299087]}}, {"type": "Feature", "properties": {"norad_id": 33805, "name": "COSMOS 2251 DEB", "group": "cosmos-2251-debris", "lat": -12.79544106397899, "lon": 138.62097102357592, "alt_km": 675.9957188552007, "timestamp": "2025-12-10T20:49:52.945248+00:00", "meta": {"OBJECT_NAME": "COSMOS 2251 DEB", "OBJECT_ID": "1993-036AW", "EPOCH": "2025-12-10T08:25:25.116096", "MEAN_MOTION": 14.57847209, "ECCENTRICITY": 0.00602937, "INCLINATION": 74.0305, "RA_OF_ASC_NODE": 315.8752, "ARG_OF_PERICENTER": 145.5394, "MEAN_ANOMALY": 214.9704, "EPHEMERIS_TYPE": 0, "CLASSIFICATION_TYPE": "U", "NORAD_CAT_ID": 33805, "ELEMENT_SET_NO": 999, "REV_AT_EPOCH": 89192, "BSTAR": 0.00038490706, "MEAN_MOTION_DOT": 1.777e-05, "MEAN_MOTION_DDOT": 0}, "tle": {"line1": "1 33805U 93036AW  25344.35098514  .00001777  00000+0  38491-3 0  9992", "line2": "2 33805  74.0305 315.8752 0060293 145.5394 214.9704 14.57847209891925"}}, "geometry": {"type": "Point", "coordinates": [138.62097102357592, -12.79544106397899]}}, {"type": "Feature", "properties": {"norad_id": 33811, "name": "COSMOS 2251 DEB", "group": "cosmos-2251-debris", "lat": 69.82951947866802, "lon": 74.40244360730561, "alt_km": 538.2205892713982, "timestamp": "2025-12-10T20:49:52.945258+00:00", "meta": {"OBJECT_NAME": "COSMOS 2251 DEB", "OBJECT_ID": "1993-036BC", "EPOCH": "2025-12-10T14:31:10.153632", "MEAN_MOTION": 15.05158022, "ECCENTRICITY": 0.00306772, "INCLINATION": 73.8381, "RA_OF_ASC_NODE": 307.0832, "ARG_OF_PERICENTER": 27.9622, "MEAN_ANOMALY": 89.4314, "EPHEMERIS_TYPE": 0, "CLASSIFICATION_TYPE": "U", "NORAD_CAT_ID": 33811, "ELEMENT_SET_NO": 999, "REV_AT_EPOCH": 89986, "BSTAR": 0.0018666223, "MEAN_MOTION_DOT": 0.00026947, "MEAN_MOTION_DDOT": 0}, "tle": {"line1": "1 33811U 93036BC  25344.60497863  .00026947  00000+0  18666-2 0  9994", "line2": "2 33811  73.8381 307.0832 0030677  27.9622  89.4314 15.05158022899860"}}, "geometry": {"type": "Point", "coordinates": [74.40244360730561, 69.82951947866802]}}, {"type": "Feature", "properties": {"norad_id": 33815, "name": "COSMOS 2251 DEB", "group": "cosmos-2251-debris", "lat": 73.4848134826221, "lon": -103.36350168947583, "alt_km": 508.4404159911255, "timestamp": "2025-12-10T20:49:52.945268+00:00", "meta": {"OBJECT_NAME": "COSMOS 2251 DEB", "OBJECT_ID": "1993-036BG", "EPOCH": "2025-12-10T00:34:36.803712", "MEAN_MOTION": 15.1696459, "ECCENTRICITY": 0.00027751, "INCLINATION": 73.9523, "RA_OF_ASC_NODE": 182.2836, "ARG_OF_PERICENTER": 231.9732, "MEAN_ANOMALY": 286.9539, "EPHEMERIS_TYPE": 0, "CLASSIFICATION_TYPE": "U", "NORAD_CAT_ID": 33815, "ELEMENT_SET_NO": 999, "REV_AT_EPOCH": 88329, "BSTAR": 0.0073023687, "MEAN_MOTION_DOT": 0.00147157, "MEAN_MOTION_DDOT": 0}, "tle": {"line1": "1 33815U 93036BG  25344.02403708  .00147157  00000+0  73024-2 0  9995", "line2": "2 33815  73.9523 182.2836 0002775 231.9732 286.9539 15.16964590883297"}}, "geometry": {"type": "Point", "coordinates": [-103.36350168947583, 73.4848134826221]}}, {"type": "Feature", "properties": {"norad_id": 33816, "name": "COSMOS 2251 DEB", "group": "cosmos-2251-debris", "lat": 34.59832423206567, "lon": -82.92741454822657, "alt_km": 773.8396901683773, "timestamp": "2025-12-10T20:49:52.945278+00:00", "meta": {"OBJECT_NAME": "COSMOS 2251 DEB", "OBJECT_ID": "1993-036BH", "EPOCH": "2025-12-10T14:56:37.125024", "MEAN_MOTION": 13.81779104, "ECCENTRICITY": 0.02648043, "INCLINATION": 73.8947, "RA_OF_ASC_NODE": 108.984, "ARG_OF_PERICENTER": 122.3287, "MEAN_ANOMALY": 240.3775, "EPHEMERIS_TYPE": 0, "CLASSIFICATION_TYPE": "U", "NORAD_CAT_ID": 33816, "ELEMENT_SET_NO": 999, "REV_AT_EPOCH": 84644, "BSTAR": 0.00078630319, "MEAN_MOTION_DOT": 1.077e-05, "MEAN_MOTION_DDOT": 0}, "tle": {"line1": "1 33816U 93036BH  25344.62265191  .00001077  00000+0  78630-3 0  9993", "line2": "2 33816  73.8947 108.9840 0264804 122.3287 240.3775 13.81779104846445"}}, "geometry": {"type": "Point", "coordinates": [-82.92741454822657, 34.59832423206567]}}, {"type": "Feature", "properties": {"norad_id": 33818, "name": "COSMOS 2251 DEB", "group": "cosmos-2251-debris", "lat": 9.28893654018785, "lon": 172.78631082316002, "alt_km": 547.280422949183, "timestamp": "2025-12-10T20:49:52.945288+00:00", "meta": {"OBJECT_NAME": "COSMOS 2251 DEB", "OBJECT_ID": "1993-036BK", "EPOCH": "2025-12-10T11:21:59.400288", "MEAN_MOTION": 15.12199668, "ECCENTRICITY": 0.0027679, "INCLINATION": 74.0757, "RA_OF_ASC_NODE": 170.9242, "ARG_OF_PERICENTER": 160.5319, "MEAN_ANOMALY": 223.3851, "EPHEMERIS_TYPE": 0, "CLASSIFICATION_TYPE": "U", "NORAD_CAT_ID": 33818, "ELEMENT_SET_NO": 999, "REV_AT_EPOCH": 89828, "BSTAR": 0.0033459523, "MEAN_MOTION_DOT": 0.00058751, "MEAN_MOTION_DDOT": 0}, "tle": {"line1": "1 33818U 93036BK  25344.47360417  .00058751  00000+0  33460-2 0  9997", "line2": "2 33818  74.0757 170.9242 0027679 160.5319 223.3851 15.12199668898283"}}, "geometry": {"type": "Point", "coordinates": [172.78631082316002, 9.28893654018785]}}, {"type": "Feature", "properties": {"norad_id": 33819, "name": "COSMOS 2251 DEB", "group": "cosmos-2251-debris", "lat": -44.91702238649393, "lon": -163.191888413705, "alt_km": 824.3422479588153, "timestamp": "2025-12-10T20:49:52.945298+00:00", "meta": {"OBJECT_NAME": "COSMOS 2251 DEB", "OBJECT_ID": "1993-036BL", "EPOCH": "2025-12-10T16:07:49.005408", "MEAN_MOTION": 14.32211054, "ECCENTRICITY": 0.00890087, "INCLINATION": 74.1789, "RA_OF_ASC_NODE": 213.5856, "ARG_OF_PERICENTER": 75.5382, "MEAN_ANOMALY": 308.66, "EPHEMERIS_TYPE": 0, "CLASSIFICATION_TYPE": "U", "NORAD_CAT_ID": 33819, "ELEMENT_SET_NO": 999, "REV_AT_EPOCH": 87466, "BSTAR": 0.00091849551, "MEAN_MOTION_DOT": 2.562e-05, "MEAN_MOTION_DDOT": 0}, "tle": {"line1": "1 33819U 93036BL  25344.67209497  .00002562  00000+0  91850-3 0  9997", "line2": "2 33819  74.1789 213.5856 0089008  75.5382 308.6600 14.32211054874664"}}, "geometry": {"type": "Point", "coordinates": [-163.191888413705, -44.91702238649393]}}, {"type": "Feature", "properties": {"norad_id": 33821, "name": "COSMOS 2251 DEB", "group": "cosmos-2251-debris", "lat": 73.13739787003769, "lon": -142.33385935560855, "alt_km": 486.81926817088606, "timestamp": "2025-12-10T20:49:52.945308+00:00", "meta": {"OBJECT_NAME": "COSMOS 2251 DEB", "OBJECT_ID": "1993-036BN", "EPOCH": "2025-12-10T12:35:15.751968", "MEAN_MOTION": 15.25092149, "ECCENTRICITY": 0.00524635, "INCLINATION": 74.0302, "RA_OF_ASC_NODE": 147.5196, "ARG_OF_PERICENTER": 181.688, "MEAN_ANOMALY": 178.4153, "EPHEMERIS_TYPE": 0, "CLASSIFICATION_TYPE": "U", "NORAD_CAT_ID": 33821, "ELEMENT_SET_NO": 999, "REV_AT_EPOCH": 74967, "BSTAR": 0.0017654468, "MEAN_MOTION_DOT": 0.00046203, "MEAN_MOTION_DDOT": 0}, "tle": {"line1": "1 33821U 93036BN  25344.52448787  .00046203  00000+0  17654-2 0  9990", "line2": "2 33821  74.0302 147.5196 0052463 181.6880 178.4153 15.25092149749670"}}, "geometry": {"type": "Point", "coordinates": [-142.33385935560855, 73.13739787003769]}}, {"type": "Feature", "properties": {"norad_id": 33822, "name": "COSMOS 2251 DEB", "group": "cosmos-2251-debris", "lat": -74.05941818466124, "lon": 107.40747650164039, "alt_km": 756.1494379485775, "timestamp": "2025-12-10T20:49:52.945319+00:00", "meta": {"OBJECT_NAME": "COSMOS 2251 DEB", "OBJECT_ID": "1993-036BP", "EPOCH": "2025-12-10T08:30:14.657184", "MEAN_MOTION": 14.13051479, "ECCENTRICITY": 0.01535173, "INCLINATION": 74.0694, "RA_OF_ASC_NODE": 197.893, "ARG_OF_PERICENTER": 244.7874, "MEAN_ANOMALY": 292.7166, "EPHEMERIS_TYPE": 0, "CLASSIFICATION_TYPE": "U", "NORAD_CAT_ID": 33822, "ELEMENT_SET_NO": 999, "REV_AT_EPOCH": 86020, "BSTAR": 0.0017246125, "MEAN_MOTION_DOT": 3.577e-05, "MEAN_MOTION_DDOT": 0}, "tle": {"line1": "1 33822U 93036BP  25344.35433631  .00003577  00000+0  17246-2 0  9998", "line2": "2 33822  74.0694 197.8930 0153517 244.7874 292.7166 14.13051479860209"}}, "geometry": {"type": "Point", "coordinates": [107.40747650164039, -74.05941818466124]}}, {"type": "Feature", "properties": {"norad_id": 33823, "name": "COSMOS 2251 DEB", "group": "cosmos-2251-debris", "lat": -3.9673121341611974, "lon": -26.234219844947397, "alt_km": 908.1024066529399, "timestamp": "2025-12-10T20:49:52.945329+00:00", "meta": {"OBJECT_NAME": "COSMOS 2251 DEB", "OBJECT_ID": "1993-036BQ", "EPOCH": "2025-12-10T11:30:49.033152", "MEAN_MOTION": 13.98941141, "ECCENTRICITY": 0.02093151, "INCLINATION": 73.8095, "RA_OF_ASC_NODE": 153.2914, "ARG_OF_PERICENTER": 278.8168, "MEAN_ANOMALY": 113.0941, "EPHEMERIS_TYPE": 0, "CLASSIFICATION_TYPE": "U", "NORAD_CAT_ID": 33823, "ELEMENT_SET_NO": 999, "REV_AT_EPOCH": 85578, "BSTAR": 0.0010377107, "MEAN_MOTION_DOT": 1.781e-05, "MEAN_MOTION_DDOT": 0}, "tle": {"line1": "1 33823U 93036BQ  25344.47973418  .00001781  00000+0  10377-2 0  9997", "line2": "2 33823  73.8095 153.2914 0209315 278.8168 113.0941 13.98941141855781"}}, "geometry": {"type": "Point", "coordinates": [-26.234219844947397, -3.9673121341611974]}}]}